NORAD_CAT_ID,OBJECT_NAME,OBJECT_TYPE,EPOCH,MEAN_MOTION,ECCENTRICITY,INCLINATION,RA_OF_ASC_NODE,ARG_OF_PERICENTER,MEAN_ANOMALY,BSTAR,MEAN_MOTION_DOT,MEAN_MOTION_DDOT,TLE_LINE0,TLE_LINE1,TLE_LINE2,SEMIMAJOR_AXIS,PERIOD,APOGEE,PERIGEE,DECAYED
52870.0,STARLINK-4195,PAYLOAD,2022-12-01 09:49:32,15.08842236,0.0002986,53.2183,345.4633,27.1833,332.9315,6.4931e-05,7.45e-06,0.0,0 STARLINK-4195,1 52870U 22062AS  22335.40940614  .00000745  00000-0  64931-4 0  9990,2 52870  53.2183 345.4633 0002986  27.1833 332.9315 15.08842236 25634,6917.874,95.437,541.804,537.673,0.0
52870.0,STARLINK-4195,PAYLOAD,2022-12-01 17:46:27,15.08850608,0.0002925,53.2179,343.9772,26.9737,333.1407,0.00013029,1.786e-05,0.0,0 STARLINK-4195,1 52870U 22062AS  22335.74059882  .00001786  00000-0  13029-3 0  9992,2 52870  53.2179 343.9772 0002925  26.9737 333.1407 15.08850608 26176,6917.848000000001,95.437,541.736,537.689,0.0
52870.0,STARLINK-4195,PAYLOAD,2022-12-02 17:37:16,15.08832083,0.0003052,53.2177,339.5166,27.8709,332.2447,9.5488e-05,1.231e-05,0.0,0 STARLINK-4195,1 52870U 22062AS  22336.73421436  .00001231  00000-0  95488-4 0  9995,2 52870  53.2177 339.5166 0003052  27.8709 332.2447 15.08832083 26321,6917.905,95.438,541.881,537.658,0.0
52870.0,STARLINK-4195,PAYLOAD,2022-12-03 06:20:20,15.08843481,0.0002983,53.2176,337.1379,25.7497,334.3643,5.5541e-05,5.96e-06,0.0,0 STARLINK-4195,1 52870U 22062AS  22337.26412774  .00000596  00000-0  55541-4 0  9998,2 52870  53.2176 337.1379 0002983  25.7497 334.3643 15.08843481 26407,6917.87,95.437,541.798,537.6709999999998,0.0
52870.0,STARLINK-4195,PAYLOAD,2022-12-03 12:41:52,15.0884858,0.0002984,53.218,335.9481,26.8352,333.2794,7.9752e-05,9.81e-06,0.0,0 STARLINK-4195,1 52870U 22062AS  22337.52908244  .00000981  00000-0  79752-4 0  9997,2 52870  53.2180 335.9481 0002984  26.8352 333.2794 15.08848580 25954,6917.854,95.437,541.783,537.655,0.0
52870.0,STARLINK-4195,PAYLOAD,2022-12-03 17:28:01,15.08863374,0.0003075,53.2184,335.056,26.9309,333.1843,-5.7714e-05,-1.208e-05,0.0,0 STARLINK-4195,1 52870U 22062AS  22337.72779425 -.00001208  00000-0 -57714-4 0  9995,2 52870  53.2184 335.0560 0003075  26.9309 333.1843 15.08863374 26472,6917.809,95.436,541.8009999999998,537.547,0.0
52870.0,STARLINK-4195,PAYLOAD,2022-12-04 09:21:53,15.08841182,0.0002768,53.2188,332.081,29.4426,330.6722,0.00010611,1.401e-05,0.0,0 STARLINK-4195,1 52870U 22062AS  22338.39020111  .00001401  00000-0  10611-3 0  9997,2 52870  53.2188 332.0810 0002768  29.4426 330.6722 15.08841182 26579,6917.877,95.437,541.6569999999998,537.827,0.0
52870.0,STARLINK-4195,PAYLOAD,2022-12-04 17:18:49,15.08836629,0.0002955,53.2176,330.5951,27.4856,332.6292,5.9325e-05,6.56e-06,0.0,0 STARLINK-4195,1 52870U 22062AS  22338.72140547  .00000656  00000-0  59325-4 0  9997,2 52870  53.2176 330.5951 0002955  27.4856 332.6292 15.08836629 26134,6917.891,95.438,541.8,537.711,0.0
52870.0,STARLINK-4195,PAYLOAD,2022-12-05 09:12:40,15.08846661,0.0002984,53.2175,327.6208,29.8012,330.3149,5.3921e-05,5.700000000000001e-06,0.0,0 STARLINK-4195,1 52870U 22062AS  22339.38379899  .00000570  00000-0  53921-4 0  9995,2 52870  53.2175 327.6208 0002984  29.8012 330.3149 15.08846661 26725,6917.86,95.437,541.789,537.661,0.0
52870.0,STARLINK-4195,PAYLOAD,2022-12-06 10:38:50,15.088435,0.0003173,53.2184,322.8634,29.9724,330.1449,3.9365e-05,3.38e-06,0.0,0 STARLINK-4195,1 52870U 22062AS  22340.44363914  .00000338  00000-0  39365-4 0  9993,2 52870  53.2184 322.8634 0003173  29.9724 330.1449 15.08843500 26884,6917.87,95.437,541.93,537.54,0.0
52870.0,STARLINK-4195,PAYLOAD,2022-12-06 21:46:33,15.08830446,0.0003167,53.2181,320.7817,32.5172,327.6015,-2.8406e-05,-7.41e-06,0.0,0 STARLINK-4195,1 52870U 22062AS  22340.90732982 -.00000741  00000-0 -28406-4 0  9993,2 52870  53.2181 320.7817 0003167  32.5172 327.6015 15.08830446 26460,6917.91,95.438,541.965,537.5840000000002,0.0
52870.0,STARLINK-4195,PAYLOAD,2022-12-06 23:21:56,15.08830377,0.0002908,53.2179,320.4838,33.4163,326.7012,-5.5817e-05,-1.177e-05,0.0,0 STARLINK-4195,1 52870U 22062AS  22340.97357039 -.00001177  00000-0 -55817-4 0  9996,2 52870  53.2179 320.4838 0002908  33.4163 326.7012 15.08830377 26964,6917.91,95.438,541.7869999999998,537.763,0.0
52870.0,STARLINK-4195,PAYLOAD,2022-12-07 08:54:15,15.08836023,0.0003065,53.219,318.7017,29.3298,330.7866,-2.6882e-05,-7.16e-06,0.0,0 STARLINK-4195,1 52870U 22062AS  22341.37100838 -.00000716  00000-0 -26882-4 0  9992,2 52870  53.2190 318.7017 0003065  29.3298 330.7866 15.08836023 27028,6917.893,95.438,541.878,537.637,0.0
52870.0,STARLINK-4195,PAYLOAD,2022-12-08 08:45:01,15.08845621,0.0003203,53.2183,314.2414,31.6669,328.4516,4.2564e-05,3.89e-06,0.0,0 STARLINK-4195,1 52870U 22062AS  22342.36460434  .00000389  00000-0  42564-4 0  9992,2 52870  53.2183 314.2414 0003203  31.6669 328.4516 15.08845621 26685,6917.863,95.437,541.944,537.512,0.0
52870.0,STARLINK-4195,PAYLOAD,2022-12-08 15:06:33,15.08861294,0.0003035,53.2183,313.0513,30.852,329.265,0.00016536,2.346e-05,0.0,0 STARLINK-4195,1 52870U 22062AS  22342.62954949  .00002346  00000-0  16536-3 0  9994,2 52870  53.2183 313.0513 0003035  30.8520 329.2650 15.08861294 27214,6917.815,95.436,541.78,537.581,0.0
52870.0,STARLINK-4195,PAYLOAD,2022-12-09 07:00:25,15.08848883,0.0002947,53.2175,310.0772,26.784,333.3304,0.00020005,2.898e-05,0.0,0 STARLINK-4195,1 52870U 22062AS  22343.29195606  .00002898  00000-0  20005-3 0  9993,2 52870  53.2175 310.0772 0002947  26.7840 333.3304 15.08848883 27311,6917.853,95.437,541.757,537.68,0.0
52870.0,STARLINK-4195,PAYLOAD,2022-12-10 05:15:51,15.08823158,0.0002884,53.2185,305.9151,24.6243,335.4887,-0.00017386,-3.053e-05,0.0,0 STARLINK-4195,1 52870U 22062AS  22344.21934823 -.00003053  00000-0 -17386-3 0  9992,2 52870  53.2185 305.9151 0002884  24.6243 335.4887 15.08823158 27452,6917.932,95.439,541.7919999999998,537.802,0.0
52870.0,STARLINK-4195,PAYLOAD,2022-12-10 06:51:14,15.08824457,0.0002952,53.2183,305.6172,25.2685,334.8451,-0.00015117,-2.693e-05,0.0,0 STARLINK-4195,1 52870U 22062AS  22344.28558789 -.00002693  00000-0 -15117-3 0  9991,2 52870  53.2183 305.6172 0002952  25.2685 334.8451 15.08824457 26972,6917.928000000001,95.439,541.835,537.751,0.0
52870.0,STARLINK-4195,PAYLOAD,2022-12-11 05:06:38,15.08839088,0.0003588,53.2184,301.4565,25.4213,334.6955,0.00022806,3.343e-05,0.0,0 STARLINK-4195,1 52870U 22062AS  22345.21294113  .00003343  00000-0  22806-3 0  9997,2 52870  53.2184 301.4565 0003588  25.4213 334.6955 15.08839088 27602,6917.8830000000025,95.438,542.23,537.266,0.0
52870.0,STARLINK-4195,PAYLOAD,2022-12-11 06:42:01,15.08839982,0.0003305,53.218,301.1566,25.5972,334.5183,0.00046008,7.042e-05,0.0,0 STARLINK-4195,1 52870U 22062AS  22345.27918295  .00007042  00000-0  46008-3 0  9997,2 52870  53.2180 301.1566 0003305  25.5972 334.5183 15.08839982 27128,6917.88,95.438,542.0319999999998,537.4590000000002,0.0
52870.0,STARLINK-4195,PAYLOAD,2022-12-12 06:32:48,15.08846939,0.0002427,53.2174,296.6931,28.2382,331.8742,0.00035722,5.403e-05,0.0,0 STARLINK-4195,1 52870U 22062AS  22346.27277887  .00005403  00000-0  35722-3 0  9993,2 52870  53.2174 296.6931 0002427  28.2382 331.8742 15.08846939 27765,6917.859,95.437,541.403,538.045,0.0
52870.0,STARLINK-4195,PAYLOAD,2022-12-13 06:23:34,15.08846686,0.0002782,53.217,292.2353,23.082,337.0296,-6.248e-05,-1.283e-05,0.0,0 STARLINK-4195,1 52870U 22062AS  22347.26636905 -.00001283  00000-0 -62480-4 0  9999,2 52870  53.2170 292.2353 0002782  23.0820 337.0296 15.08846686 27429,6917.86,95.437,541.65,537.8,0.0
52870.0,STARLINK-4195,PAYLOAD,2022-12-14 12:35:53,15.08839164,0.0002934,53.2173,286.5864,24.0948,336.0181,-0.00013319,-2.408e-05,0.0,0 STARLINK-4195,1 52870U 22062AS  22348.52492826 -.00002408  00000-0 -13319-3 0  9997,2 52870  53.2173 286.5864 0002934  24.0948 336.0181 15.08839164 28107,6917.8830000000025,95.438,541.778,537.7180000000002,0.0
52870.0,STARLINK-4195,PAYLOAD,2022-12-15 06:05:09,15.088297699999998,0.0002956,53.2177,283.3155,23.4624,336.6502,1.7570999999999998e-05,-9e-08,0.0,0 STARLINK-4195,1 52870U 22062AS  22349.25357670 -.00000009  00000-0  17571-4 0  9994,2 52870  53.2177 283.3155 0002956  23.4624 336.6502 15.08829770 28214,6917.9119999999975,95.438,541.822,537.732,0.0
52870.0,STARLINK-4195,PAYLOAD,2022-12-15 12:26:41,15.08832803,0.000297,53.2179,282.1261,24.2378,335.8753,3.7804e-05,3.13e-06,0.0,0 STARLINK-4195,1 52870U 22062AS  22349.51853579  .00000313  00000-0  37804-4 0  9990,2 52870  53.2179 282.1261 0002970  24.2378 335.8753 15.08832803 27761,6917.901999999999,95.438,541.822,537.7130000000002,0.0
52870.0,STARLINK-4195,PAYLOAD,2022-12-15 20:23:36,15.08843012,0.0002823,53.2173,280.6391,22.8313,337.2804,3.0998000000000004e-05,2.05e-06,0.0,0 STARLINK-4195,1 52870U 22062AS  22349.84972986  .00000205  00000-0  30998-4 0  9997,2 52870  53.2173 280.6391 0002823  22.8313 337.2804 15.08843012 27815,6917.871,95.437,541.689,537.783,0.0
52870.0,STARLINK-4195,PAYLOAD,2022-12-16 01:09:46,15.08842074,0.0002849,53.2174,279.747,23.1286,336.9834,8.6056e-06,-1.52e-06,0.0,0 STARLINK-4195,1 52870U 22062AS  22350.04845139 -.00000152  00000-0  86056-5 0  9999,2 52870  53.2174 279.7470 0002849  23.1286 336.9834 15.08842074 28338,6917.874,95.437,541.71,537.768,0.0
52870.0,STARLINK-4195,PAYLOAD,2022-12-16 12:17:28,15.08834506,0.0002906,53.2174,277.6655,23.8091,336.3035,-6.296100000000001e-05,-1.29e-05,0.0,0 STARLINK-4195,1 52870U 22062AS  22350.51213906 -.00001290  00000-0 -62961-4 0  9995,2 52870  53.2174 277.6655 0002906  23.8091 336.3035 15.08834506 28401,6917.897,95.438,541.773,537.752,0.0
52870.0,STARLINK-4195,PAYLOAD,2022-12-16 20:14:24,15.08829458,0.0003034,53.217,276.178,21.7932,338.3189,7.353399999999999e-05,8.82e-06,0.0,0 STARLINK-4195,1 52870U 22062AS  22350.84334158  .00000882  00000-0  73534-4 0  9996,2 52870  53.2170 276.1780 0003034  21.7932 338.3189 15.08829458 27966,6917.913000000001,95.438,541.877,537.679,0.0
